{"type": "FeatureCollection", "features": [ {"type": "Feature", "properties": {"norad_id": 66650, "name": "BEE-1000", "group": "last-30-days", "lat": -32.99305780085024, "lon": -82.84514616212273, "alt_km": 596.2400489125766, "timestamp": "2025-12-10T20:49:51.345974+00:00", "meta": {"OBJECT_NAME": "BEE-1000", "OBJECT_ID": "2025-274A", "EPOCH": "2025-12-10T12:55:49.027296", "MEAN_MOTION": 14.91648697, "ECCENTRICITY": 0.0010426, "INCLINATION": 97.7386, "RA_OF_ASC_NODE": 271.7668, "ARG_OF_PERICENTER": 259.8671, "MEAN_ANOMALY": 100.1372, "EPHEMERIS_TYPE": 0, "CLASSIFICATION_TYPE": "U", "NORAD_CAT_ID": 66650, "ELEMENT_SET_NO": 999, "REV_AT_EPOCH": 207, "BSTAR": 0.00029688669, "MEAN_MOTION_DOT": 2.93e-05, "MEAN_MOTION_DDOT": 0}, "tle": {"line1": "1 66650U 25274A   25344.53876189  .00002930  00000+0  29689-3 0  9998", "line2": "2 66650  97.7386 271.7668 0010426 259.8671 100.1372 14.91648697  2071"}}, "geometry": {"type": "Point", "coordinates": [-82.84514616212273, -32.99305780085024]}}, {"type": "Feature", "properties": {"norad_id": 66651, "name": "2025-274B", "group": "last-30-days", "lat": -28.951679072958797, "lon": -83.59516594819716, "alt_km": 596.1436784790321, "timestamp": "2025-12-10T20:49:51.345984+00:00", "meta": {"OBJECT_NAME": "2025-274B", "OBJECT_ID": "2025-274B", "EPOCH": "2025-12-10T14:31:20.829216", "MEAN_MOTION": 14.91770599, "ECCENTRICITY": 0.00106989, "INCLINATION": 97.738, "RA_OF_ASC_NODE": 271.8329, "ARG_OF_PERICENTER": 258.7224, "MEAN_ANOMALY": 101.2792, "EPHEMERIS_TYPE": 0, "CLASSIFICATION_TYPE": "U", "NORAD_CAT_ID": 66651, "ELEMENT_SET_NO": 999, "REV_AT_EPOCH": 208, "BSTAR": 0.00064311884, "MEAN_MOTION_DOT": 6.435e-05, "MEAN_MOTION_DDOT": 0}, "tle": {"line1": "1 66651U 25274B   25344.60510219  .00006435  00000+0  64312-3 0  9992", "line2": "2 66651  97.7380 271.8329 0010698 258.7224 101.2792 14.91770599  2080"}}, "geometry": {"type": "Point", "coordinates": [-83.59516594819716, -28.951679072958797]}}, {"type": "Feature", "properties": {"norad_id": 66652, "name": "2025-274C", "group": "last-30-days", "lat": -22.021553382186074, "lon": -84.75238289463057, "alt_km": 595.3448366647517, "timestamp": "2025-12-10T20:49:51.345994+00:00", "meta": {"OBJECT_NAME": "2025-274C", "OBJECT_ID": "2025-274C", "EPOCH": "2025-12-10T12:52:54.651360", "MEAN_MOTION": 14.91881512, "ECCENTRICITY": 0.00103944, "INCLINATION": 97.7385, "RA_OF_ASC_NODE": 271.7696, "ARG_OF_PERICENTER": 265.9418, "MEAN_ANOMALY": 94.0613, "EPHEMERIS_TYPE": 0, "CLASSIFICATION_TYPE": "U", "NORAD_CAT_ID": 66652, "ELEMENT_SET_NO": 999, "REV_AT_EPOCH": 207, "BSTAR": 0.00039337844, "MEAN_MOTION_DOT": 3.924e-05, "MEAN_MOTION_DDOT": 0}, "tle": {"line1": "1 66652U 25274C   25344.53674365  .00003924  00000+0  39338-3 0  9998", "line2": "2 66652  97.7385 271.7696 0010394 265.9418  94.0613 14.91881512  2078"}}, "geometry": {"type": "Point", "coordinates": [-84.75238289463057, -22.021553382186074]}}, {"type": "Feature", "properties": {"norad_id": 66653, "name": "2025-274D", "group": "last-30-days", "lat": -21.67884520632596, "lon": -84.80674212565862, "alt_km": 595.7091522257933, "timestamp": "2025-12-10T20:49:51.346004+00:00", "meta": {"OBJECT_NAME": "2025-274D", "OBJECT_ID": "2025-274D", "EPOCH": "2025-12-10T14:29:24.119232", "MEAN_MOTION": 14.91886694, "ECCENTRICITY": 0.00112497, "INCLINATION": 97.7385, "RA_OF_ASC_NODE": 271.8352, "ARG_OF_PERICENTER": 261.6601, "MEAN_ANOMALY": 98.3342, "EPHEMERIS_TYPE": 0, "CLASSIFICATION_TYPE": "U", "NORAD_CAT_ID": 66653, "ELEMENT_SET_NO": 999, "REV_AT_EPOCH": 208, "BSTAR": 0.00041311808, "MEAN_MOTION_DOT": 4.125e-05, "MEAN_MOTION_DDOT": 0}, "tle": {"line1": "1 66653U 25274D   25344.60375138  .00004125  00000+0  41312-3 0  9992", "line2": "2 66653  97.7385 271.8352 0011249 261.6601  98.3342 14.91886694  2089"}}, "geometry": {"type": "Point", "coordinates": [-84.80674212565862, -21.67884520632596]}}, {"type": "Feature", "properties": {"norad_id": 66654, "name": "JACK E", "group": "last-30-days", "lat": -13.254627711192258, "lon": -86.06562764463, "alt_km": 595.2569988504583, "timestamp": "2025-12-10T20:49:51.346016+00:00", "meta": {"OBJECT_NAME": "JACK E", "OBJECT_ID": "2025-274E", "EPOCH": "2025-12-10T14:27:09.808704", "MEAN_MOTION": 14.92062182, "ECCENTRICITY": 0.0011838, "INCLINATION": 97.7386, "RA_OF_ASC_NODE": 271.8378, "ARG_OF_PERICENTER": 263.3593, "MEAN_ANOMALY": 96.6279, "EPHEMERIS_TYPE": 0, "CLASSIFICATION_TYPE": "U", "NORAD_CAT_ID": 66654, "ELEMENT_SET_NO": 999, "REV_AT_EPOCH": 208, "BSTAR": 0.00044716292, "MEAN_MOTION_DOT": 4.49e-05, "MEAN_MOTION_DDOT": 0}, "tle": {"line1": "1 66654U 25274E   25344.60219686  .00004490  00000+0  44716-3 0  9994", "line2": "2 66654  97.7386 271.8378 0011838 263.3593  96.6279 14.92062182  2081"}}, "geometry": {"type": "Point", "coordinates": [-86.06562764463, -13.254627711192258]}}, {"type": "Feature", "properties": {"norad_id": 66655, "name": "2025-274F", "group": "last-30-days", "lat": -3.4650142900739005, "lon": -87.425593026472, "alt_km": 594.0354756870047, "timestamp": "2025-12-10T20:49:51.346028+00:00", "meta": {"OBJECT_NAME": "2025-274F", "OBJECT_ID": "2025-274F", "EPOCH": "2025-12-10T14:24:20.624544", "MEAN_MOTION": 14.91412978, "ECCENTRICITY": 0.00046983, "INCLINATION": 97.7323, "RA_OF_ASC_NODE": 271.8406, "ARG_OF_PERICENTER": 22.2473, "MEAN_ANOMALY": 337.8948, "EPHEMERIS_TYPE": 0, "CLASSIFICATION_TYPE": "U", "NORAD_CAT_ID": 66655, "ELEMENT_SET_NO": 999, "REV_AT_EPOCH": 208, "BSTAR": 1.9321348e-05, "MEAN_MOTION_DOT": 1.38e-06, "MEAN_MOTION_DDOT": 0}, "tle": {"line1": "1 66655U 25274F   25344.60023871  .00000138  00000+0  19321-4 0  9994", "line2": "2 66655  97.7323 271.8406 0004698  22.2473 337.8948 14.91412978  2084"}}, "geometry": {"type": "Point", "coordinates": [-87.425593026472, -3.4650142900739005]}}, {"type": "Feature", "properties": {"norad_id": 66656, "name": "2025-274G", "group": "last-30-days", "lat": -3.9996393822829033, "lon": -87.3528441856255, "alt_km": 594.7107032524791, "timestamp": "2025-12-10T20:49:51.346038+00:00", "meta": {"OBJECT_NAME": "2025-274G", "OBJECT_ID": "2025-274G", "EPOCH": "2025-12-10T12:48:08.872128", "MEAN_MOTION": 14.92251024, "ECCENTRICITY": 0.0012453, "INCLINATION": 97.7383, "RA_OF_ASC_NODE": 271.7738, "ARG_OF_PERICENTER": 265.4546, "MEAN_ANOMALY": 94.5251, "EPHEMERIS_TYPE": 0, "CLASSIFICATION_TYPE": "U", "NORAD_CAT_ID": 66656, "ELEMENT_SET_NO": 999, "REV_AT_EPOCH": 207, "BSTAR": 0.00048020439, "MEAN_MOTION_DOT": 4.85e-05, "MEAN_MOTION_DDOT": 0}, "tle": {"line1": "1 66656U 25274G   25344.53343602  .00004850  00000+0  48020-3 0  9996", "line2": "2 66656  97.7383 271.7738 0012453 265.4546  94.5251 14.92251024  2075"}}, "geometry": {"type": "Point", "coordinates": [-87.3528441856255, -3.9996393822829033]}}, {"type": "Feature", "properties": {"norad_id": 66657, "name": "SPIRONE", "group": "last-30-days", "lat": 5.03427064573369, "lon": -88.58041871030528, "alt_km": 591.6455324290891, "timestamp": "2025-12-10T20:49:51.346050+00:00", "meta": {"OBJECT_NAME": "SPIRONE", "OBJECT_ID": "2025-274H", "EPOCH": "2025-12-10T12:45:45.708192", "MEAN_MOTION": 14.92430455, "ECCENTRICITY": 0.00108957, "INCLINATION": 97.7383, "RA_OF_ASC_NODE": 271.7756, "ARG_OF_PERICENTER": 284.3298, "MEAN_ANOMALY": 75.6711, "EPHEMERIS_TYPE": 0, "CLASSIFICATION_TYPE": "U", "NORAD_CAT_ID": 66657, "ELEMENT_SET_NO": 999, "REV_AT_EPOCH": 207, "BSTAR": 0.00047411303, "MEAN_MOTION_DOT": 4.808e-05, "MEAN_MOTION_DDOT": 0}, "tle": {"line1": "1 66657U 25274H   25344.53177903  .00004808  00000+0  47411-3 0  9992", "line2": "2 66657  97.7383 271.7756 0010895 284.3298  75.6711 14.92430455  2076"}}, "geometry": {"type": "Point", "coordinates": [-88.58041871030528, 5.03427064573369]}}, {"type": "Feature", "properties": {"norad_id": 66658, "name": "2025-274J", "group": "last-30-days", "lat": 13.86166391358873, "lon": -89.81310881810126, "alt_km": 590.5772715264311, "timestamp": "2025-12-10T20:49:51.346059+00:00", "meta": {"OBJECT_NAME": "2025-274J", "OBJECT_ID": "2025-274J", "EPOCH": "2025-12-10T12:43:25.805856", "MEAN_MOTION": 14.92602161, "ECCENTRICITY": 0.00114812, "INCLINATION": 97.7383, "RA_OF_ASC_NODE": 271.7778, "ARG_OF_PERICENTER": 287.3729, "MEAN_ANOMALY": 72.6234, "EPHEMERIS_TYPE": 0, "CLASSIFICATION_TYPE": "U", "NORAD_CAT_ID": 66658, "ELEMENT_SET_NO": 999, "REV_AT_EPOCH": 207, "BSTAR": 0.00045076221, "MEAN_MOTION_DOT": 4.589e-05, "MEAN_MOTION_DDOT": 0}, "tle": {"line1": "1 66658U 25274J   25344.53015979  .00004589  00000+0  45076-3 0  9998", "line2": "2 66658  97.7383 271.7778 0011481 287.3729  72.6234 14.92602161  2077"}}, "geometry": {"type": "Point", "coordinates": [-89.81310881810126, 13.86166391358873]}}, {"type": "Feature", "properties": {"norad_id": 66659, "name": "JACK K", "group": "last-30-days", "lat": 23.258588719314556, "lon": -91.23652214739764, "alt_km": 589.6982443754405, "timestamp": "2025-12-10T20:49:51.346069+00:00", "meta": {"OBJECT_NAME": "JACK K", "OBJECT_ID": "2025-274K", "EPOCH": "2025-12-10T07:51:22.608000", "MEAN_MOTION": 14.92785796, "ECCENTRICITY": 0.00122069, "INCLINATION": 97.7384, "RA_OF_ASC_NODE": 271.5826, "ARG_OF_PERICENTER": 289.5073, "MEAN_ANOMALY": 70.4827, "EPHEMERIS_TYPE": 0, "CLASSIFICATION_TYPE": "U", "NORAD_CAT_ID": 66659, "ELEMENT_SET_NO": 999, "REV_AT_EPOCH": 204, "BSTAR": 0.00042579045, "MEAN_MOTION_DOT": 4.352e-05, "MEAN_MOTION_DDOT": 0}, "tle": {"line1": "1 66659U 25274K   25344.32734500  .00004352  00000+0  42579-3 0  9997", "line2": "2 66659  97.7384 271.5826 0012206 289.5073  70.4827 14.92785796  2040"}}, "geometry": {"type": "Point", "coordinates": [-91.23652214739764, 23.258588719314556]}}]}